KUIPER-00053            
1 64513U 25134P   25213.02760902  .00032973  00000+0  91277-3 0  9995
2 64513  51.8759 144.7603 0002075 231.5282 128.5518 15.36686498  6718
KUIPER-00054            
1 64514U 25134Q   25212.96743262  .00032626  00000+0  90984-3 0  9997
2 64514  51.8745 145.1044 0002673 216.6286 143.4518 15.36462086  7105
KUIPER-00055            
1 64515U 25134R   25213.21159059  .00037347  00000+0  10187-2 0  9993
2 64515  51.8776 143.7476 0000455 116.2538 243.8495 15.37086392  7050
KUIPER-00056            
1 64516U 25134S   25213.03817245  .00003524  00000+0  10916-3 0  9993
2 64516  51.8727 144.8258 0002711 239.1787 120.8932 15.36181215  6716
KUIPER-00057            
1 64517U 25134T   25213.38506522  .00015347  00000+0  45383-3 0  9997
2 64517  51.8697 143.3816 0006413 242.9884 117.0447 15.35089117  6873
KUIPER-00058            
1 64518U 25134U   25213.11188900  .00017321  00000+0  49801-3 0  9998
2 64518  51.8709 144.5624 0004387 243.3989 116.6548 15.35887053  6723
KUIPER-00059            
1 64519U 25134V   25212.36835354  .00030406  00000+0  83340-3 0  9992
2 64519  51.8760 147.8404 0001331 167.4314 192.6706 15.37037107  6603
KUIPER-00060            
1 64520U 25134W   25213.02401905  .00033587  00000+0  92390-3 0  9997
2 64520  51.8759 144.7358 0001974 186.6539 173.4421 15.36874384  6710
